APRIZESAT 2             
1 28366U 04025A   26201.40490904  .00000108  00000+0  46347-4 0  9993
2 28366  98.1048   5.5098 0106266 149.2234 211.5244 14.38049083156416
SAUDICOMSAT 1           
1 28369U 04025D   26201.01411691  .00000128  00000+0  40744-4 0  9996
2 28369  98.5779 212.0328 0030878 283.5654  76.2104 14.55495394168905
SAUDICOMSAT 2           
1 28370U 04025E   26201.45520299  .00000111  00000+0  40702-4 0  9997
2 28370  98.6644 214.6422 0055964 157.8111 202.5522 14.49995974164924
APRIZESAT 1             
1 28372U 04025G   26201.03210383  .00000101  00000+0  36784-4 0  9997
2 28372  98.6310 212.6523 0045610  56.3603 304.1930 14.51793593166674
NANOSAT-1               
1 28493U 04049B   26201.63093232  .00000527  00000+0  76665-4 0  9999
2 28493  98.2317 339.1184 0004195 167.5068 192.6248 14.80216830160393
SAUDICOMSAT 7           
1 31119U 07012C   26200.87172126  .00000262  00000+0  56092-4 0  9994
2 31119  98.3802 175.6764 0057030  93.9673 266.8052 14.66139390 27229
SAUDICOMSAT 6           
1 31121U 07012E   26200.86009125  .00000157  00000+0  40093-4 0  9991
2 31121  98.4121 168.9897 0070725 224.3685 135.1835 14.62586541 24963
SAUDICOMSAT 5           
1 31124U 07012H   26201.20824995  .00000345  00000+0  68164-4 0  9991
2 31124  98.3514 176.7608 0047921  23.3041 337.0321 14.68195963 28443
SAUDICOMSAT 3           
1 31125U 07012J   26201.51963751  .00000385  00000+0  71306-4 0  9996
2 31125  98.3169 177.6245 0037938 307.9922  51.7859 14.70754280 29727
SAUDICOMSAT 4           
1 31127U 07012L   26201.42762482  .00000220  00000+0  50150-4 0  9998
2 31127  98.4008 174.6805 0063906 153.4729 206.9767 14.64538082 26153
APRIZESAT 4             
1 35684U 09041D   26201.43306361  .00000346  00000+0  47999-4 0  9991
2 35684  98.1399 277.4146 0042554 212.1645 147.6972 14.83918089916293
APRIZESAT 3             
1 35686U 09041F   26201.33474328  .00000122  00000+0  16413-4 0  9990
2 35686  98.2107 356.1560 0060686 318.6931  40.9706 14.96316711921333
S-NET D                 
1 43186U 18014G   26201.31450735  .00002508  00000+0  13053-3 0  9994
2 43186  97.5322 105.8991 0006212 262.4252  97.6276 15.16944165463786
S-NET B                 
1 43187U 18014H   26201.26064927  .00002441  00000+0  12724-3 0  9993
2 43187  97.5327 105.8332 0006883 256.9960 103.0504 15.16912944463774
S-NET A                 
1 43188U 18014J   26201.31320279  .00002464  00000+0  12831-3 0  9999
2 43188  97.5338 106.1006 0006747 257.5646 102.4832 15.16952194463785
S-NET C                 
1 43189U 18014K   26201.26470540  .00002588  00000+0  13472-3 0  9990
2 43189  97.5353 106.1320 0008192 248.9811 111.0546 15.16904453462328
SALSAT                  
1 46495U 20068K   26200.97640307  .00004107  00000+0  14329-3 0  9993
2 46495  97.8865 206.0496 0009725 176.0322 184.0997 15.30211220320374
OOV-CUBE (TUBSAT-30)    
1 60240U 24128F   26201.45672186  .00001048  00000+0  92250-4 0  9993
2 60240  61.9942 109.5533 0040424 141.1866 219.2141 15.02886563111111
LPNTSAT-001 (IOD-1)     
1 68408U 26065A   26201.22011982  .00001315  00000+0  66560-4 0  9997
2 68408  97.3974  81.0264 0014730 247.0306 112.9374 15.18682969 17274
CHUANG XIN 26 (CX-26)   
1 69972U 26158A   26201.38633875 -.00000127  00000+0  14035-4 0  9996
2 69972  49.9831 258.5104 0004944 316.9950  43.0576 14.25124198  1449
